{
  "type": "FeatureCollection",
  "features": [
    {
      "type": "Feature",
      "properties": {
        "norad_id": 67091,
        "name": "STARLINK-36097",
        "group": "last-30-days",
        "lat": -12.060801075987042,
        "lon": -156.40916470257426,
        "alt_km": 355.5473193848575,
        "timestamp": "2025-12-27T11:23:18.582408+00:00",
        "meta_object_name": "STARLINK-36097",
        "meta_object_id": "2025-298S",
        "meta_epoch": "2025-12-27T04:00:01.998720",
        "meta_mean_motion": 15.73501478,
        "meta_eccentricity": 0.0003625,
        "meta_inclination": 69.9985,
        "meta_ra_of_asc_node": 208.9236,
        "meta_arg_of_pericenter": 277.197,
        "meta_mean_anomaly": 127.4979,
        "meta_ephemeris_type": 0,
        "meta_classification_type": "U",
        "meta_norad_cat_id": 67091,
        "meta_element_set_no": 999,
        "meta_rev_at_epoch": 329,
        "meta_bstar": -0.014346,
        "meta_mean_motion_dot": -0.01764722,
        "meta_mean_motion_ddot": 0,
        "tle_line1": "1 67091U 25298S   25361.16668980 -.01764722  00000+0 -14346-1 0  9999",
        "tle_line2": "2 67091  69.9985 208.9236 0003625 277.1970 127.4979 15.73501478  3294"
      },
      "geometry": {
        "type": "Point",
        "coordinates": [
          -156.40916470257426,
          -12.060801075987042
        ]
      }
    },
    {
      "type": "Feature",
      "properties": {
        "norad_id": 67092,
        "name": "STARLINK-35792",
        "group": "last-30-days",
        "lat": -10.30033939472311,
        "lon": -155.7433435107444,
        "alt_km": 355.3766217650418,
        "timestamp": "2025-12-27T11:23:18.582418+00:00",
        "meta_object_name": "STARLINK-35792",
        "meta_object_id": "2025-298T",
        "meta_epoch": "2025-12-27T04:00:01.998720",
        "meta_mean_motion": 15.73502624,
        "meta_eccentricity": 0.0003685,
        "meta_inclination": 69.9985,
        "meta_ra_of_asc_node": 208.9213,
        "meta_arg_of_pericenter": 277.904,
        "meta_mean_anomaly": 128.6657,
        "meta_ephemeris_type": 0,
        "meta_classification_type": "U",
        "meta_norad_cat_id": 67092,
        "meta_element_set_no": 999,
        "meta_rev_at_epoch": 323,
        "meta_bstar": -0.014303,
        "meta_mean_motion_dot": -0.01760192,
        "meta_mean_motion_ddot": 0,
        "tle_line1": "1 67092U 25298T   25361.16668980 -.01760192  00000+0 -14303-1 0  9990",
        "tle_line2": "2 67092  69.9985 208.9213 0003685 277.9040 128.6657 15.73502624  3236"
      },
      "geometry": {
        "type": "Point",
        "coordinates": [
          -155.7433435107444,
          -10.30033939472311
        ]
      }
    },
    {
      "type": "Feature",
      "properties": {
        "norad_id": 67093,
        "name": "STARLINK-35784",
        "group": "last-30-days",
        "lat": -8.458757404381274,
        "lon": -155.05557082790278,
        "alt_km": 355.2413346281646,
        "timestamp": "2025-12-27T11:23:18.582430+00:00",
        "meta_object_name": "STARLINK-35784",
        "meta_object_id": "2025-298U",
        "meta_epoch": "2025-12-27T04:00:01.998720",
        "meta_mean_motion": 15.73501469,
        "meta_eccentricity": 0.0003697,
        "meta_inclination": 69.9986,
        "meta_ra_of_asc_node": 208.9186,
        "meta_arg_of_pericenter": 278.3316,
        "meta_mean_anomaly": 130.2043,
        "meta_ephemeris_type": 0,
        "meta_classification_type": "U",
        "meta_norad_cat_id": 67093,
        "meta_element_set_no": 999,
        "meta_rev_at_epoch": 329,
        "meta_bstar": -0.014337,
        "meta_mean_motion_dot": -0.0176379,
        "meta_mean_motion_ddot": 0,
        "tle_line1": "1 67093U 25298U   25361.16668980 -.01763790  00000+0 -14337-1 0  9995",
        "tle_line2": "2 67093  69.9986 208.9186 0003697 278.3316 130.2043 15.73501469  3291"
      },
      "geometry": {
        "type": "Point",
        "coordinates": [
          -155.05557082790278,
          -8.458757404381274
        ]
      }
    },
    {
      "type": "Feature",
      "properties": {
        "norad_id": 67094,
        "name": "STARLINK-36202",
        "group": "last-30-days",
        "lat": -6.499290524907586,
        "lon": -154.33090025567824,
        "alt_km": 355.0964303635292,
        "timestamp": "2025-12-27T11:23:18.582440+00:00",
        "meta_object_name": "STARLINK-36202",
        "meta_object_id": "2025-298V",
        "meta_epoch": "2025-12-27T04:00:01.998720",
        "meta_mean_motion": 15.73492397,
        "meta_eccentricity": 0.0003645,
        "meta_inclination": 69.9985,
        "meta_ra_of_asc_node": 208.9163,
        "meta_arg_of_pericenter": 279.3337,
        "meta_mean_anomaly": 131.3014,
        "meta_ephemeris_type": 0,
        "meta_classification_type": "U",
        "meta_norad_cat_id": 67094,
        "meta_element_set_no": 999,
        "meta_rev_at_epoch": 329,
        "meta_bstar": -0.01436,
        "meta_mean_motion_dot": -0.01765633,
        "meta_mean_motion_ddot": 0,
        "tle_line1": "1 67094U 25298V   25361.16668980 -.01765633  00000+0 -14360-1 0  9990",
        "tle_line2": "2 67094  69.9985 208.9163 0003645 279.3337 131.3014 15.73492397  3292"
      },
      "geometry": {
        "type": "Point",
        "coordinates": [
          -154.33090025567824,
          -6.499290524907586
        ]
      }
    },
    {
      "type": "Feature",
      "properties": {
        "norad_id": 67095,
        "name": "STARLINK-36227",
        "group": "last-30-days",
        "lat": -4.615641701492873,
        "lon": -153.64067323216207,
        "alt_km": 354.93521638168113,
        "timestamp": "2025-12-27T11:23:18.582450+00:00",
        "meta_object_name": "STARLINK-36227",
        "meta_object_id": "2025-298W",
        "meta_epoch": "2025-12-27T04:00:01.998720",
        "meta_mean_motion": 15.7348779,
        "meta_eccentricity": 0.000364,
        "meta_inclination": 69.9983,
        "meta_ra_of_asc_node": 208.9134,
        "meta_arg_of_pericenter": 279.9745,
        "meta_mean_anomaly": 132.6709,
        "meta_ephemeris_type": 0,
        "meta_classification_type": "U",
        "meta_norad_cat_id": 67095,
        "meta_element_set_no": 999,
        "meta_rev_at_epoch": 323,
        "meta_bstar": -0.01435,
        "meta_mean_motion_dot": -0.01764314,
        "meta_mean_motion_ddot": 0,
        "tle_line1": "1 67095U 25298W   25361.16668980 -.01764314  00000+0 -14350-1 0  9995",
        "tle_line2": "2 67095  69.9983 208.9134 0003640 279.9745 132.6709 15.73487790  3233"
      },
      "geometry": {
        "type": "Point",
        "coordinates": [
          -153.64067323216207,
          -4.615641701492873
        ]
      }
    },
    {
      "type": "Feature",
      "properties": {
        "norad_id": 67096,
        "name": "STARLINK-36228",
        "group": "last-30-days",
        "lat": -2.8831920990423088,
        "lon": -153.0084163252197,
        "alt_km": 354.7902612221751,
        "timestamp": "2025-12-27T11:23:18.582460+00:00",
        "meta_object_name": "STARLINK-36228",
        "meta_object_id": "2025-298X",
        "meta_epoch": "2025-12-27T04:00:01.998720",
        "meta_mean_motion": 15.73489553,
        "meta_eccentricity": 0.0003727,
        "meta_inclination": 69.9987,
        "meta_ra_of_asc_node": 208.9116,
        "meta_arg_of_pericenter": 279.5116,
        "meta_mean_anomaly": 134.9732,
        "meta_ephemeris_type": 0,
        "meta_classification_type": "U",
        "meta_norad_cat_id": 67096,
        "meta_element_set_no": 999,
        "meta_rev_at_epoch": 323,
        "meta_bstar": -0.014316,
        "meta_mean_motion_dot": -0.01760768,
        "meta_mean_motion_ddot": 0,
        "tle_line1": "1 67096U 25298X   25361.16668980 -.01760768  00000+0 -14316-1 0  9997",
        "tle_line2": "2 67096  69.9987 208.9116 0003727 279.5116 134.9732 15.73489553  3232"
      },
      "geometry": {
        "type": "Point",
        "coordinates": [
          -153.0084163252197,
          -2.8831920990423088
        ]
      }
    },
    {
      "type": "Feature",
      "properties": {
        "norad_id": 67097,
        "name": "STARLINK-36222",
        "group": "last-30-days",
        "lat": -1.0263994088860358,
        "lon": -152.3338672558268,
        "alt_km": 354.6589248734954,
        "timestamp": "2025-12-27T11:23:18.582470+00:00",
        "meta_object_name": "STARLINK-36222",
        "meta_object_id": "2025-298Y",
        "meta_epoch": "2025-12-27T04:00:01.998720",
        "meta_mean_motion": 15.73484938,
        "meta_eccentricity": 0.0003719,
        "meta_inclination": 69.9984,
        "meta_ra_of_asc_node": 208.9089,
        "meta_arg_of_pericenter": 279.323,
        "meta_mean_anomaly": 137.1427,
        "meta_ephemeris_type": 0,
        "meta_classification_type": "U",
        "meta_norad_cat_id": 67097,
        "meta_element_set_no": 999,
        "meta_rev_at_epoch": 323,
        "meta_bstar": -0.014319,
        "meta_mean_motion_dot": -0.01760804,
        "meta_mean_motion_ddot": 0,
        "tle_line1": "1 67097U 25298Y   25361.16668980 -.01760804  00000+0 -14319-1 0  9992",
        "tle_line2": "2 67097  69.9984 208.9089 0003719 279.3230 137.1427 15.73484938  3233"
      },
      "geometry": {
        "type": "Point",
        "coordinates": [
          -152.3338672558268,
          -1.0263994088860358
        ]
      }
    }
  ]
}